[{"OBJECT_NAME":"STARLINK-4103","OBJECT_ID":"2022-083K","EPOCH":"2026-03-09T13:53:44.577888","MEAN_MOTION":15.08838158,"ECCENTRICITY":0.0001258,"INCLINATION":53.2178,"RA_OF_ASC_NODE":174.6166,"ARG_OF_PERICENTER":110.5244,"MEAN_ANOMALY":249.5883,"EPHEMERIS_TYPE":0,"CLASSIFICATION_TYPE":"U","NORAD_CAT_ID":53141,"ELEMENT_SET_NO":999,"REV_AT_EPOCH":20120,"BSTAR":-4.7507e-6,"MEAN_MOTION_DOT":-3.63e-6,"MEAN_MOTION_DDOT":0},{"OBJECT_NAME":"UNKNOWN","OBJECT_ID":"","EPOCH":"2026-03-07T17:21:07.805664","MEAN_MOTION":15.09455608,"ECCENTRICITY":0.0009057,"INCLINATION":82.8696,"RA_OF_ASC_NODE":177.6495,"ARG_OF_PERICENTER":167.3062,"MEAN_ANOMALY":192.8398,"EPHEMERIS_TYPE":0,"CLASSIFICATION_TYPE":"U","NORAD_CAT_ID":87725,"ELEMENT_SET_NO":999,"REV_AT_EPOCH":64668,"BSTAR":0.0060116,"MEAN_MOTION_DOT":0.00097492,"MEAN_MOTION_DDOT":0}]
